start=new Date('2021-09-09T00:00:00.000Z').valueOf();
sats=[{"APOAPSIS":"548.537","NORAD_CAT_ID":"47884","DECAY_DATE":null,"MEAN_ELEMENT_THEORY":"SGP4","COUNTRY_CODE":"US","ECCENTRICITY":"0.00018490","GP_ID":"184326576","OBJECT_ID":"2021-021AA","MEAN_ANOMALY":"288.6645","MEAN_MOTION":"15.06385868","LAUNCH_DATE":"2021-03-14","REV_AT_EPOCH":"2794","SEMIMAJOR_AXIS":"6925.392","CLASSIFICATION_TYPE":"U","TLE_LINE2":"2 47884  53.0497  96.8369 0001849  71.4545 288.6645 15.06385868 27941","SITE":"AFETR","MEAN_MOTION_DOT":"-0.00001095","MEAN_MOTION_DDOT":"0.0000000000000","PERIAPSIS":"545.976","OBJECT_TYPE":"PAYLOAD","EPOCH":"2021-09-08T19:13:42.045312","OBJECT_NAME":"STARLINK-2343","TIME_SYSTEM":"UTC","EPHEMERIS_TYPE":"0","TLE_LINE1":"1 47884U 21021AA  21251.80118108 -.00001095  00000-0 -54643-4 0  9998","RCS_SIZE":"LARGE","BSTAR":"-0.00005464300000","FILE":"3111241","ARG_OF_PERICENTER":"71.4545","RA_OF_ASC_NODE":"96.8369","CENTER_NAME":"EARTH","INCLINATION":"53.0497","PERIOD":"95.593","ELEMENT_SET_NO":"999","REF_FRAME":"TEME"},{"TLE_LINE1":"1 47885U 21021AB  21251.72884216  .00001181  00000-0  98216-4 0  9998","BSTAR":"0.00009821600000","RCS_SIZE":"LARGE","EPHEMERIS_TYPE":"0","TIME_SYSTEM":"UTC","EPOCH":"2021-09-08T17:29:31.962624","OBJECT_NAME":"STARLINK-2344","REF_FRAME":"TEME","PERIOD":"95.592","ELEMENT_SET_NO":"999","INCLINATION":"53.0545","CENTER_NAME":"EARTH","RA_OF_ASC_NODE":"102.1453","FILE":"3111252","ARG_OF_PERICENTER":"68.9969","LAUNCH_DATE":"2021-03-14","MEAN_MOTION":"15.06395797","MEAN_ANOMALY":"291.1227","OBJECT_ID":"2021-021AB","GP_ID":"184348568","ECCENTRICITY":"0.00019390","COUNTRY_CODE":"US","NORAD_CAT_ID":"47885","APOAPSIS":"548.569","DECAY_DATE":null,"MEAN_ELEMENT_THEORY":"SGP4","OBJECT_TYPE":"PAYLOAD","PERIAPSIS":"545.884","TLE_LINE2":"2 47885  53.0545 102.1453 0001939  68.9969 291.1227 15.06395797 28502","SITE":"AFETR","MEAN_MOTION_DOT":"0.00001181","MEAN_MOTION_DDOT":"0.0000000000000","REV_AT_EPOCH":"2850","SEMIMAJOR_AXIS":"6925.361","CLASSIFICATION_TYPE":"U"},{"TIME_SYSTEM":"UTC","OBJECT_NAME":"STARLINK-2345","EPOCH":"2021-09-08T20:40:35.074848","EPHEMERIS_TYPE":"0","TLE_LINE1":"1 47886U 21021AC  21251.86151707 -.00000621  00000-0 -22756-4 0  9992","BSTAR":"-0.00002275600000","RCS_SIZE":"LARGE","ARG_OF_PERICENTER":"87.2131","FILE":"3111252","CENTER_NAME":"EARTH","RA_OF_ASC_NODE":"91.5508","ELEMENT_SET_NO":"999","PERIOD":"95.592","INCLINATION":"53.0552","REF_FRAME":"TEME","COUNTRY_CODE":"US","DECAY_DATE":null,"MEAN_ELEMENT_THEORY":"SGP4","NORAD_CAT_ID":"47886","APOAPSIS":"548.511","OBJECT_ID":"2021-021AC","ECCENTRICITY":"0.00018590","GP_ID":"184349319","MEAN_MOTION":"15.06396723","MEAN_ANOMALY":"272.9071","LAUNCH_DATE":"2021-03-14","SEMIMAJOR_AXIS":"6925.359","CLASSIFICATION_TYPE":"U","REV_AT_EPOCH":"2851","MEAN_MOTION_DDOT":"0.0000000000000","MEAN_MOTION_DOT":"-0.00000621","TLE_LINE2":"2 47886  53.0552  91.5508 0001859  87.2131 272.9071 15.06396723 28514","SITE":"AFETR","OBJECT_TYPE":"PAYLOAD","PERIAPSIS":"545.936"},{"LAUNCH_DATE":"2021-03-14","MEAN_ANOMALY":"277.5256","MEAN_MOTION":"15.06391139","ECCENTRICITY":"0.00017600","GP_ID":"184347567","OBJECT_ID":"2021-021AD","NORAD_CAT_ID":"47887","APOAPSIS":"548.460","DECAY_DATE":null,"MEAN_ELEMENT_THEORY":"SGP4","COUNTRY_CODE":"US","PERIAPSIS":"546.022","OBJECT_TYPE":"PAYLOAD","MEAN_MOTION_DOT":"0.00000255","TLE_LINE2":"2 47887  53.0571  97.0364 0001760  82.5933 277.5256 15.06391139 28428","SITE":"AFETR","MEAN_MOTION_DDOT":"0.0000000000000","REV_AT_EPOCH":"2842","CLASSIFICATION_TYPE":"U","SEMIMAJOR_AXIS":"6925.376","TLE_LINE1":"1 47887U 21021AD  21251.75326665  .00000255  00000-0  36035-4 0  9994","BSTAR":"0.00003603500000","RCS_SIZE":"LARGE","EPHEMERIS_TYPE":"0","EPOCH":"2021-09-08T18:04:42.238560","OBJECT_NAME":"STARLINK-2346","TIME_SYSTEM":"UTC","REF_FRAME":"TEME","INCLINATION":"53.0571","PERIOD":"95.593","ELEMENT_SET_NO":"999","RA_OF_ASC_NODE":"97.0364","CENTER_NAME":"EARTH","FILE":"3111252","ARG_OF_PERICENTER":"82.5933"},{"CENTER_NAME":"EARTH","RA_OF_ASC_NODE":"86.3338","FILE":"3111252","ARG_OF_PERICENTER":"99.1538","REF_FRAME":"TEME","INCLINATION":"53.0553","PERIOD":"95.592","ELEMENT_SET_NO":"999","EPOCH":"2021-09-08T21:48:57.167136","OBJECT_NAME":"STARLINK-2348","TIME_SYSTEM":"UTC","RCS_SIZE":"LARGE","TLE_LINE1":"1 47888U 21021AE  21251.90899499 -.00000632  00000-0 -23543-4 0  9993","BSTAR":"-0.00002354300000","EPHEMERIS_TYPE":"0","REV_AT_EPOCH":"2859","SEMIMAJOR_AXIS":"6925.357","CLASSIFICATION_TYPE":"U","PERIAPSIS":"545.721","OBJECT_TYPE":"PAYLOAD","TLE_LINE2":"2 47888  53.0553  86.3338 0002168  99.1538 260.9696 15.06397086 28598","MEAN_MOTION_DOT":"-0.00000632","SITE":"AFETR","MEAN_MOTION_DDOT":"0.0000000000000","ECCENTRICITY":"0.00021680","GP_ID":"184347817","OBJECT_ID":"2021-021AE","APOAPSIS":"548.724","NORAD_CAT_ID":"47888","MEAN_ELEMENT_THEORY":"SGP4","DECAY_DATE":null,"COUNTRY_CODE":"US","LAUNCH_DATE":"2021-03-14","MEAN_ANOMALY":"260.9696","MEAN_MOTION":"15.06397086"},{"OBJECT_TYPE":"PAYLOAD","PERIAPSIS":"545.647","MEAN_MOTION_DOT":"-0.00000573","TLE_LINE2":"2 47889  53.0565  86.2873 0002230  96.7211 263.4032 15.06407243 28641","SITE":"AFETR","MEAN_MOTION_DDOT":"0.0000000000000","REV_AT_EPOCH":"2864","CLASSIFICATION_TYPE":"U","SEMIMAJOR_AXIS":"6925.326","LAUNCH_DATE":"2021-03-14","MEAN_MOTION":"15.06407243","MEAN_ANOMALY":"263.4032","OBJECT_ID":"2021-021AF","ECCENTRICITY":"0.00022300","GP_ID":"184349069","COUNTRY_CODE":"US","APOAPSIS":"548.736","NORAD_CAT_ID":"47889","MEAN_ELEMENT_THEORY":"SGP4","DECAY_DATE":null,"REF_FRAME":"TEME","PERIOD":"95.592","ELEMENT_SET_NO":"999","INCLINATION":"53.0565","CENTER_NAME":"EARTH","RA_OF_ASC_NODE":"86.2873","FILE":"3111252","ARG_OF_PERICENTER":"96.7211","TLE_LINE1":"1 47889U 21021AF  21251.92004998 -.00000573  00000-0 -19568-4 0  9994","BSTAR":"-0.00001956800000","RCS_SIZE":"LARGE","EPHEMERIS_TYPE":"0","TIME_SYSTEM":"UTC","EPOCH":"2021-09-08T22:04:52.318272","OBJECT_NAME":"STARLINK-2349"},{"TIME_SYSTEM":"UTC","OBJECT_NAME":"STARLINK-2350","EPOCH":"2021-09-08T16:13:14.255616","TLE_LINE1":"1 47890U 21021AG  21251.67585944 -.00000675  00000-0 -26382-4 0  9998","BSTAR":"-0.00002638200000","RCS_SIZE":"LARGE","EPHEMERIS_TYPE":"0","CENTER_NAME":"EARTH","RA_OF_ASC_NODE":"97.3794","ARG_OF_PERICENTER":"84.7243","FILE":"3111252","REF_FRAME":"TEME","ELEMENT_SET_NO":"999","PERIOD":"95.592","INCLINATION":"53.0555","OBJECT_ID":"2021-021AG","GP_ID":"184348819","ECCENTRICITY":"0.00021620","COUNTRY_CODE":"US","MEAN_ELEMENT_THEORY":"SGP4","DECAY_DATE":null,"NORAD_CAT_ID":"47890","APOAPSIS":"548.715","LAUNCH_DATE":"2021-03-14","MEAN_MOTION":"15.06398754","MEAN_ANOMALY":"275.3993","SEMIMAJOR_AXIS":"6925.352","CLASSIFICATION_TYPE":"U","REV_AT_EPOCH":"2746","OBJECT_TYPE":"PAYLOAD","PERIAPSIS":"545.720","MEAN_MOTION_DDOT":"0.0000000000000","MEAN_MOTION_DOT":"-0.00000675","TLE_LINE2":"2 47890  53.0555  97.3794 0002162  84.7243 275.3993 15.06398754 27466","SITE":"AFETR"},{"PERIOD":"95.592","ELEMENT_SET_NO":"999","INCLINATION":"53.0545","REF_FRAME":"TEME","FILE":"3111252","ARG_OF_PERICENTER":"86.5939","CENTER_NAME":"EARTH","RA_OF_ASC_NODE":"96.8494","EPHEMERIS_TYPE":"0","TLE_LINE1":"1 47891U 21021AH  21251.79379406  .00000845  00000-0  75632-4 0  9995","BSTAR":"0.00007563200000","RCS_SIZE":"LARGE","TIME_SYSTEM":"UTC","EPOCH":"2021-09-08T19:03:03.806784","OBJECT_NAME":"STARLINK-2351","SITE":"AFETR","TLE_LINE2":"2 47891  53.0545  96.8494 0001680  86.5939 273.5242 15.06401086 28598","MEAN_MOTION_DOT":"0.00000845","MEAN_MOTION_DDOT":"0.0000000000000","OBJECT_TYPE":"PAYLOAD","PERIAPSIS":"546.047","REV_AT_EPOCH":"2859","SEMIMAJOR_AXIS":"6925.345","CLASSIFICATION_TYPE":"U","MEAN_MOTION":"15.06401086","MEAN_ANOMALY":"273.5242","LAUNCH_DATE":"2021-03-14","COUNTRY_CODE":"US","NORAD_CAT_ID":"47891","APOAPSIS":"548.374","DECAY_DATE":null,"MEAN_ELEMENT_THEORY":"SGP4","OBJECT_ID":"2021-021AH","ECCENTRICITY":"0.00016800","GP_ID":"184348068"},{"ELEMENT_SET_NO":"999","PERIOD":"95.593","INCLINATION":"53.0557","REF_FRAME":"TEME","ARG_OF_PERICENTER":"89.8521","FILE":"3111252","RA_OF_ASC_NODE":"96.4705","CENTER_NAME":"EARTH","EPHEMERIS_TYPE":"0","BSTAR":"-0.00002364800000","TLE_LINE1":"1 47892U 21021AJ  21251.87858986 -.00000634  00000-0 -23648-4 0  9998","RCS_SIZE":"LARGE","TIME_SYSTEM":"UTC","OBJECT_NAME":"STARLINK-2352","EPOCH":"2021-09-08T21:05:10.163904","MEAN_MOTION_DDOT":"0.0000000000000","SITE":"AFETR","TLE_LINE2":"2 47892  53.0557  96.4705 0002138  89.8521 270.2713 15.06390152 28447","MEAN_MOTION_DOT":"-0.00000634","OBJECT_TYPE":"PAYLOAD","PERIAPSIS":"545.763","CLASSIFICATION_TYPE":"U","SEMIMAJOR_AXIS":"6925.379","REV_AT_EPOCH":"2844","MEAN_MOTION":"15.06390152","MEAN_ANOMALY":"270.2713","LAUNCH_DATE":"2021-03-14","COUNTRY_CODE":"US","DECAY_DATE":null,"MEAN_ELEMENT_THEORY":"SGP4","APOAPSIS":"548.724","NORAD_CAT_ID":"47892","OBJECT_ID":"2021-021AJ","ECCENTRICITY":"0.00021380","GP_ID":"184348318"},{"TIME_SYSTEM":"UTC","EPOCH":"2021-09-08T18:00:42.749856","OBJECT_NAME":"STARLINK-2354","RCS_SIZE":"LARGE","TLE_LINE1":"1 47894U 21021AL  21251.75049479 -.00000475  00000-0 -12970-4 0  9995","BSTAR":"-0.00001297000000","EPHEMERIS_TYPE":"0","CENTER_NAME":"EARTH","RA_OF_ASC_NODE":"87.0468","FILE":"3111252","ARG_OF_PERICENTER":"96.2812","REF_FRAME":"TEME","PERIOD":"95.592","ELEMENT_SET_NO":"999","INCLINATION":"53.0563","OBJECT_ID":"2021-021AL","GP_ID":"184348569","ECCENTRICITY":"0.00018400","COUNTRY_CODE":"US","APOAPSIS":"548.497","NORAD_CAT_ID":"47894","DECAY_DATE":null,"MEAN_ELEMENT_THEORY":"SGP4","LAUNCH_DATE":"2021-03-14","MEAN_MOTION":"15.06396957","MEAN_ANOMALY":"263.8387","REV_AT_EPOCH":"2851","CLASSIFICATION_TYPE":"U","SEMIMAJOR_AXIS":"6925.358","OBJECT_TYPE":"PAYLOAD","PERIAPSIS":"545.949","MEAN_MOTION_DOT":"-0.00000475","TLE_LINE2":"2 47894  53.0563  87.0468 0001840  96.2812 263.8387 15.06396957 28514","SITE":"AFETR","MEAN_MOTION_DDOT":"0.0000000000000"}];
